[{"OBJECT_NAME":"STARLINK-11087 [DTC]","OBJECT_ID":"2024-065A","EPOCH":"2026-03-09T10:48:26.162784","MEAN_MOTION":15.6969979,"ECCENTRICITY":0.00016421,"INCLINATION":53.158,"RA_OF_ASC_NODE":95.1975,"ARG_OF_PERICENTER":114.5035,"MEAN_ANOMALY":245.6154,"EPHEMERIS_TYPE":0,"CLASSIFICATION_TYPE":"U","NORAD_CAT_ID":59421,"ELEMENT_SET_NO":999,"REV_AT_EPOCH":11147,"BSTAR":7.4809e-6,"MEAN_MOTION_DOT":3.17e-6,"MEAN_MOTION_DDOT":0},{"OBJECT_NAME":"TUSUR GO (RS78S)","OBJECT_ID":"2024-199AZ","EPOCH":"2026-03-09T22:48:41.341536","MEAN_MOTION":15.7089308,"ECCENTRICITY":0.00036127,"INCLINATION":97.3018,"RA_OF_ASC_NODE":306.7757,"ARG_OF_PERICENTER":269.724,"MEAN_ANOMALY":90.3609,"EPHEMERIS_TYPE":0,"CLASSIFICATION_TYPE":"U","NORAD_CAT_ID":61782,"ELEMENT_SET_NO":999,"REV_AT_EPOCH":11926,"BSTAR":0.0013446465,"MEAN_MOTION_DOT":0.00170473,"MEAN_MOTION_DDOT":0}]
